C/2021 P2 (PANSTARRS),e,150.0527,32.0489,76.5899,4987,0.0000028,0.99898340,0.0000,01/22.0646/2023,2000,g  9.0,4.0
# From MPEC 2021-W31
P/2021 P3 (PANSTARRS),e,27.1617,358.2398,334.1292,4.414856,0.1062501,0.33957410,37.5573,05/19.0/2022,2000,g 14.0,4.0
# From MPEC 2022-J42
C/2021 P4 (ATLAS),e,56.3108,348.0944,175.8216,318.2325,0.0001736,0.99660481,0.0000,07/30.3727/2022,2000,g  9.5,4.0
# From MPEC 2022-GA9
C/2021 Q3 (ATLAS),e,77.7757,307.9035,114.0947,75.00892,0.0015172,0.93061378,0.1713,05/19.0/2022,2000,g  8.0,4.0
# From MPEC 2022-GA9
C/2021 Q4 (Fuls),h,06/09.5040/2023,71.4728,183.3339,146.9353,1.003373,7.565630,2000,6.0,4.0
# From MPEC 2022-C56
P/2021 Q5 (ATLAS),e,10.7344,239.7677,180.9009,3.286029,0.1654615,0.62432803,43.2776,05/19.0/2022,2000,g 15.0,4.0
# From MPEC 2022-C56
C/2021 Q6 (PANSTARRS),e,161.8472,133.5365,140.8472,7925,0.0000014,0.99890062,0.0000,03/22.1367/2024,2000,g  6.0,4.0
# From MPEC 2021-W31
P/2021 R1 (PANSTARRS),e,5.5205,143.3984,220.3460,8.390978,0.0405495,0.41771960,6.1745,05/19.0/2022,2000,g 11.0,4.0
# From MPEC 2021-W31
C/2021 R2 (PANSTARRS),e,134.4696,16.2849,32.3818,1809,0.0000128,0.99595829,0.0000,12/26.1810/2021,2000,g  7.5,4.0
# From MPEC 2021-W31
P/2021 R3 (PANSTARRS),e,19.9265,304.2213,2.8768,3.775541,0.1343492,0.33142795,48.0228,05/19.0/2022,2000,g 16.0,4.0
# From MPEC 2021-W31
P/2021 R4 (Wierzchos),e,21.0400,321.2558,56.6374,5.617721,0.0740225,0.58593432,16.0666,05/19.0/2022,2000,g 16.0,4.0
# From MPEC 2022-CN4
P/2021 R5 (Rankin),e,7.8546,219.9594,167.3765,4.793992,0.0938984,0.30690049,11.9084,05/19.0/2022,2000,g 12.0,4.0
# From MPEC 2021-W31
P/2021 R6 (Groeller),e,34.9270,176.1144,220.7366,6.273408,0.0627262,0.59316735,12.4881,05/19.0/2022,2000,g 14.5,4.0
# From MPEC 2022-C56
C/2021 R7 (PANSTARRS),e,158.8538,170.1452,140.2025,1363,0.0000196,0.99585726,0.0000,04/16.3981/2021,2000,g 10.5,4.0
# From MPEC 2021-Y10
P/2021 R8 (Sheppard),e,2.2034,167.0292,190.7627,3.016895,0.1880891,0.29363553,42.0517,05/19.0/2022,2000,g 18.5,4.0
# From MPEC 2022-H30
C/2021 S1 (ATLAS),h,02/28.8641/2022,52.0872,299.8748,148.1802,1.001079,6.119207,2000,7.0,4.0
# From MPEC 2022-J42
C/2021 S3 (PANSTARRS),e,58.5394,215.6362,6.9046,5542,0.0000024,0.99976202,0.0000,02/14.8180/2024,2000,g  5.5,4.0
# From MPEC 2022-ED3
C/2021 S4 (Tsuchinshan),e,17.4777,5.4946,72.7374,163.0729,0.0004733,0.95896010,359.7199,05/19.0/2022,2000,g  6.5,4.0
# From MPEC 2022-GA9
C/2021 T1 (Lemmon),e,140.3515,56.8334,51.5162,1314,0.0000207,0.99767254,0.0000,10/14.0627/2021,2000,g 12.5,4.0
# From MPEC 2022-ED3
C/2021 T2 (Fuls),h,06/07.8907/2022,117.5301,223.2321,263.5912,1.000215,1.247700,2000,12.0,4.0
# From MPEC 2022-ED3
C/2021 T4 (Lemmon),e,160.7546,257.7945,329.7852,10212,0.0000010,0.99985491,0.0000,07/31.5317/2023,2000,g  7.5,4.0
# From MPEC 2022-ED3
P/2021 U1 (Wierzchos),e,30.5594,246.7887,145.0556,8.513057,0.0396804,0.71278091,9.1262,05/19.0/2022,2000,g 14.5,4.0
# From MPEC 2022-C56
P/2021 U3 (Attard-Maury),e,69.9609,75.1118,335.2147,4.192000,0.1148344,0.54989271,23.6712,05/19.0/2022,2000,g 15.5,4.0
# From MPEC 2021-W31
C/2021 U4 (Leonard),e,152.8772,241.8128,237.2775,44.74303,0.0032932,0.96005302,0.4876,05/19.0/2022,2000,g 17.0,4.0
# From MPEC 2022-J42
C/2021 U5 (Catalina),e,39.0502,182.7549,321.4680,217.1520,0.0003080,0.98911705,0.0000,01/26.6038/2022,2000,g 13.0,4.0
# From MPEC 2022-CN4
C/2021 V1 (Rankin),e,71.4516,207.6522,195.1121,656.2766,0.0000586,0.99540829,0.0000,04/30.3906/2022,2000,g 13.0,4.0
# From MPEC 2022-HC2
P/2021 V2 (Fuls),e,12.6949,232.2906,259.8321,9.043516,0.0362408,0.61336226,351.0310,05/19.0/2022,2000,g 10.0,4.0
# From MPEC 2022-J42
C/2021 X1 (Maury-Attard),h,05/27.4119/2023,140.1213,10.5824,334.6055,1.000053,3.234224,2000,7.0,4.0
# From MPEC 2022-ED3
A/2021 X2,h,07/08.1538/2022,137.1430,228.7982,193.2834,1.001244,2.994517,2000,16.0,2.0
# From MPEC 2022-HC2
C/2021 Y1 (ATLAS),h,04/30.7168/2023,77.1863,244.7700,245.8077,1.000679,2.032713,2000,7.0,4.0
# From MPEC 2022-ED3
C/2022 A1 (Sarneczky),e,116.5216,285.5222,201.1961,829.8751,0.0000412,0.99849030,0.0000,01/31.1541/2022,2000,g 18.0,4.0
# From MPEC 2022-J42
C/2022 A2 (PANSTARRS),h,02/18.2442/2023,108.1482,171.5802,88.3618,1.000583,1.735269,2000,9.5,4.0
# From MPEC 2022-HC2
C/2022 A3 (Lemmon-ATLAS),e,88.3583,325.4829,234.8565,995.6621,0.0000314,0.99628098,0.0000,09/28.8278/2023,2000,g  8.0,4.0
# From MPEC 2022-CN4
P/2022 B1 (Wierzchos),e,10.9908,148.8501,325.4793,5.464389,0.0771599,0.65289867,6.3784,05/19.0/2022,2000,g 16.5,4.0
# From MPEC 2022-GA9
A/2022 B3,e,132.0562,286.1867,150.7020,876.3155,0.0000380,0.99577973,0.0000,01/17.6647/2022,2000,g 16.5,2.0
# From MPEC 2022-GA9
C/2022 B4 (Bok),e,20.0442,340.6616,152.9533,388.9805,0.0001285,0.99645318,0.0000,01/29.8935/2022,2000,g 21.0,4.0
# From MPEC 2022-H04
P/2022 C1 (PANSTARRS),e,4.7621,113.1469,9.3663,7.216252,0.0508436,0.44770510,9.9391,05/19.0/2022,2000,g 12.0,4.0
# From MPEC 2022-J42
P/2022 C2 (PANSTARRS),e,9.9799,135.2752,89.3080,6.048622,0.0662551,0.44277285,354.7233,05/19.0/2022,2000,g 12.5,4.0
# From MPEC 2022-J42
P/2022 C3 (PANSTARRS),e,12.8157,139.0581,93.9832,9.653504,0.0328607,0.54687637,358.5687,05/19.0/2022,2000,g 11.5,4.0
# From MPEC 2022-HC2
P/2022 D1 (PANSTARRS),e,44.0663,47.9623,88.7160,7.400488,0.0489569,0.54697153,12.9206,05/19.0/2022,2000,g 12.5,4.0
# From MPEC 2022-GA9
C/2022 D2 (Kowalski),e,22.6545,312.4699,177.7908,364.9991,0.0001413,0.99573932,0.0000,03/27.5752/2022,2000,g 17.0,4.0
# From MPEC 2022-J42
P/2022 E1 (PANSTARRS-Christensen),e,19.8855,108.9460,145.1079,4.129079,0.1174693,0.28407810,343.0681,05/19.0/2022,2000,g 13.5,4.0
# From MPEC 2022-J42
C/2022 E2 (ATLAS),h,09/13.4825/2024,137.1480,125.3459,41.6323,1.002195,3.667506,2000,5.0,4.0
# From MPEC 2022-J42
C/2022 E3 (ZTF),h,01/12.7807/2023,109.1700,302.5545,145.8156,1.000264,1.112226,2000,7.5,4.0
# From MPEC 2022-H30
C/2022 F1 (ATLAS),h,07/28.5524/2022,58.0010,351.0161,277.3573,1.013824,6.001800,2000,7.0,4.0
# From MPEC 2022-J42
C/2022 F2 (NEOWISE),e,97.2894,58.6876,200.6147,23.61015,0.0085912,0.93287431,0.4859,05/19.0/2022,2000,g 14.5,4.0
# From MPEC 2022-J76
C/2022 H1 (PANSTARRS),e,49.8915,6.3813,246.2581,1156,0.0000251,0.99334134,0.0000,01/18.9815/2024,2000,g  6.0,4.0
# From MPEC 2022-J88
C/2022 J1 (Maury-Attard),e,105.4646,280.5757,303.7935,25.61000,0.0076048,0.93843912,0.6938,05/19.0/2022,2000,g 14.9,4.0
# From  98, 1083
1P/Halley,e,162.2100,59.0922,112.0177,17.87194,0.0130451,0.96638976,172.7000,05/19.0/2022,2000,g  4.0,6.0
# From MPEC 2021-TD0
2P/Encke,e,11.5484,334.3607,186.9547,2.219421,0.2980880,0.84885979,204.9577,05/19.0/2022,2000,g 11.5,6.0
# From MPEC 2022-J42
4P/Faye,e,8.0085,192.9276,207.0152,3.824710,0.1317669,0.57671083,33.2236,05/19.0/2022,2000,g  8.0,6.0
# From MPEC 2022-ED3
6P/d'Arrest,e,19.5122,138.9336,178.0832,3.497025,0.1507148,0.61266945,36.6618,05/19.0/2022,2000,g  7.5,16.0
# From MPEC 2021-Y10
7P/Pons-Winnecke,e,22.3648,93.3478,172.5736,3.412066,0.1563788,0.63849471,55.8145,05/19.0/2022,2000,g 10.0,6.0
# From MPEC 2022-HC2
8P/Tuttle,e,54.9132,270.1999,207.4844,5.705552,0.0723199,0.82018525,19.1121,05/19.0/2022,2000,g  8.0,8.0
# From MPEC 2022-J42
9P/Tempel,e,10.4699,68.7137,179.3566,3.146083,0.1766237,0.50915052,13.2538,05/19.0/2022,2000,g  5.5,10.0
# From MPEC 2022-HC2
10P/Tempel,e,12.0389,117.8109,195.5056,3.060899,0.1840478,0.53841370,77.4419,05/19.0/2022,2000,g  5.0,10.0
# From MPEC 2021-UA9
11P/Tempel-Swift-LINEAR,e,14.4233,238.8891,167.9685,3.283786,0.1656311,0.57726580,89.2163,05/19.0/2022,2000,g 17.0,4.0
# From MPEC 2022-J42
12P/Pons-Brooks,e,74.1626,255.8084,198.9830,17.16473,0.0138595,0.95446048,350.2531,05/19.0/2022,2000,g  5.0,6.0
# From  27, 604
13P/Olbers,e,44.6175,85.9396,64.3972,16.76849,0.0143537,0.92991600,348.8886,05/19.0/2022,2000,g  5.0,6.0
# From MPEC 2021-F20
14P/Wolf,e,27.9225,202.0431,159.0612,4.258279,0.1121638,0.35716710,182.5237,05/19.0/2022,2000,g  5.5,12.0
# From MPEC 2022-ED3
15P/Finlay,e,6.7979,13.7099,347.8443,3.506810,0.1500844,0.71706438,46.4532,05/19.0/2022,2000,g 12.0,4.0
# From MPEC 2022-C56
16P/Brooks,e,3.0117,138.8697,245.2107,3.657469,0.1409072,0.48639721,55.7521,05/19.0/2022,2000,g  7.5,10.0
# From MPEC 2022-ED3
17P/Holmes,e,19.0317,326.6224,24.5130,3.636450,0.1421306,0.42762501,64.3978,05/19.0/2022,2000,g 10.0,6.0
# From MPEC 2022-J42
19P/Borrelly,e,29.3043,74.2462,351.9182,3.605198,0.1439827,0.63766833,15.2872,05/19.0/2022,2000,g  4.5,10.0
# From MPEC 2021-F20
21P/Giacobini-Zinner,e,32.0529,195.3450,172.8740,3.495352,0.1508230,0.71118410,202.9621,05/19.0/2022,2000,g 11.4,4.0
# From MPEC 2022-J42
22P/Kopff,e,4.7422,120.8312,163.0279,3.440971,0.1544125,0.54884388,9.5521,05/19.0/2022,2000,g  3.0,10.4
# From MPC 14747
23P/Brorsen-Metcalf,e,19.1709,312.2724,128.9327,16.94617,0.0141285,0.97174328,0.0000,08/05.2825/1989,2000,g 10.0,6.0
# From MPC110085
24P/Schaumasse,e,11.5116,78.4205,58.3884,4.054352,0.1207318,0.70778744,199.2580,05/19.0/2022,2000,g  6.5,14.0
# From MPEC 2021-WD8
26P/Grigg-Skjellerup,e,22.4321,211.5389,2.1603,3.014774,0.1882877,0.64032234,249.7551,05/19.0/2022,2000,g 12.0,16.0
# From MPC 78188
27P/Crommelin,e,29.2841,250.6362,195.8970,9.182609,0.0354205,0.91862284,140.0041,05/19.0/2022,2000,g 12.0,8.0
# From MPEC 2022-F14
28P/Neujmin,e,14.3121,346.3317,347.4329,6.977706,0.0534731,0.77371987,23.1605,05/19.0/2022,2000,g  8.5,6.0
# From MPEC 2022-J42
29P/Schwassmann-Wachmann,e,9.3659,312.3851,50.1449,6.043544,0.0663386,0.04482554,75.3346,05/19.0/2022,2000,g  4.0,4.0
# From MPC110085
30P/Reinmuth,e,8.1089,117.8595,9.5371,3.717923,0.1374844,0.51874598,247.2450,05/19.0/2022,2000,g  9.5,6.0
# From MPEC 2021-F20
31P/Schwassmann-Wachmann,e,4.5477,114.1071,18.0060,4.236955,0.1130117,0.19213940,118.6726,05/19.0/2022,2000,g 13.1,4.0
# From MPC 92276
32P/Comas Sola,e,9.8794,55.0567,54.8779,4.532564,0.1021382,0.55825596,288.2363,05/19.0/2022,2000,g  6.5,8.0
# From MPEC 2013-O31
33P/Daniel,e,22.2958,66.3077,20.4924,4.086926,0.1192914,0.45164275,251.6859,05/19.0/2022,2000,g 10.0,12.0
# From  15, 452
